[{"OBJECT_NAME":"STARLINK-1452","OBJECT_ID":"2020-035N","EPOCH":"2026-03-09T03:54:47.994336","MEAN_MOTION":15.44914586,"ECCENTRICITY":0.00080076,"INCLINATION":53.0334,"RA_OF_ASC_NODE":24.2429,"ARG_OF_PERICENTER":52.8149,"MEAN_ANOMALY":307.3586,"EPHEMERIS_TYPE":0,"CLASSIFICATION_TYPE":"U","NORAD_CAT_ID":45669,"ELEMENT_SET_NO":999,"REV_AT_EPOCH":31928,"BSTAR":0.0019010434,"MEAN_MOTION_DOT":0.0009155,"MEAN_MOTION_DDOT":0},{"OBJECT_NAME":"FLOCK 4Q-11","OBJECT_ID":"2023-174T","EPOCH":"2026-03-09T22:58:16.261824","MEAN_MOTION":15.45173932,"ECCENTRICITY":0.00077811,"INCLINATION":97.3894,"RA_OF_ASC_NODE":155.5718,"ARG_OF_PERICENTER":154.8881,"MEAN_ANOMALY":205.2748,"EPHEMERIS_TYPE":0,"CLASSIFICATION_TYPE":"U","NORAD_CAT_ID":58273,"ELEMENT_SET_NO":999,"REV_AT_EPOCH":13024,"BSTAR":0.00060116033,"MEAN_MOTION_DOT":0.00028516,"MEAN_MOTION_DDOT":0}]
